{"version": 0.6, "generator": "Overpass API 0.7.62.1 084b4234", "osm3s": {"timestamp_osm_base": "2024-07-06T21:47:45Z", "copyright": "The data included in this document is from www.openstreetmap.org. The data is made available under ODbL."}, "elements": [{"type": "node", "id": 253129357, "lat": -20.0720142, "lon": 30.8341936, "tags": {"capital": "4", "name": "Masvingo", "name:ar": "\u0645\u0627\u0633\u0641\u064a\u0646\u063a\u0648", "name:ko": "\ub9c8\uc2a4\ube59\uace0", "name:ru": "\u041c\u0430\u0441\u0432\u0438\u043d\u0433\u043e", "name:uk": "\u041c\u0430\u0441\u0432\u0456\u043d\u0491\u043e", "old_name": "Fort Victoria", "place": "city", "population": "72527", "wikidata": "Q601142", "wikipedia": "en:Masvingo"}}, {"type": "node", "id": 2882933437, "lat": -19.8838321, "lon": 31.1713042, "tags": {"name": "Chikwanda Mission", "place": "village"}}, {"type": "node", "id": 3089523853, "lat": -20.2651756, "lon": 31.2227951, "tags": {"name": "Jichidza Mission", "place": "village"}}, {"type": "node", "id": 3429463207, "lat": -20.2719584, "lon": 30.9364514, "tags": {"name": "The Valley", "name:de": "Das Tal", "name:en": "The Valley", "place": "locality"}}, {"type": "node", "id": 3429463208, "lat": -20.2669446, "lon": 30.9342221, "tags": {"name": "The Hill", "name:de": "Der Berg", "name:en": "The Hill", "place": "locality"}}, {"type": "node", "id": 3429463209, "lat": -20.2714163, "lon": 30.9331029, "tags": {"name": "The Ridge", "name:de": "Die Kante", "name:en": "The Ridge", "place": "locality"}}, {"type": "node", "id": 3756072249, "lat": -20.0679674, "lon": 30.8412288, "tags": {"name": "Eastvale", "place": "suburb"}}, {"type": "node", "id": 3756072250, "lat": -20.0580525, "lon": 30.8324185, "tags": {"name": "Rhodene", "place": "suburb"}}, {"type": "node", "id": 10940531995, "lat": -20.2769616, "lon": 30.9101951, "tags": {"name": "Nemanwa Growth Point", "place": "village"}}]}